[{"OBJECT_NAME":"TEVEL2-5","OBJECT_ID":"2025-052E","EPOCH":"2026-03-09T23:11:54.246048","MEAN_MOTION":15.30817434,"ECCENTRICITY":0.00047002,"INCLINATION":97.4013,"RA_OF_ASC_NODE":325.3677,"ARG_OF_PERICENTER":95.3936,"MEAN_ANOMALY":264.7842,"EPHEMERIS_TYPE":0,"CLASSIFICATION_TYPE":"U","NORAD_CAT_ID":63214,"ELEMENT_SET_NO":999,"REV_AT_EPOCH":5491,"BSTAR":0.00071764727,"MEAN_MOTION_DOT":0.00021339,"MEAN_MOTION_DDOT":0},{"OBJECT_NAME":"STARLINK-35280","OBJECT_ID":"2025-232W","EPOCH":"2026-03-09T18:47:31.049664","MEAN_MOTION":15.30199526,"ECCENTRICITY":0.00013417,"INCLINATION":53.1572,"RA_OF_ASC_NODE":103.2014,"ARG_OF_PERICENTER":73.6624,"MEAN_ANOMALY":286.4525,"EPHEMERIS_TYPE":0,"CLASSIFICATION_TYPE":"U","NORAD_CAT_ID":66025,"ELEMENT_SET_NO":999,"REV_AT_EPOCH":2345,"BSTAR":0.00025835922,"MEAN_MOTION_DOT":7.3e-5,"MEAN_MOTION_DDOT":0}]
